[{"OBJECT_NAME":"HULIANWANG DIGUI-81","OBJECT_ID":"2025-187J","EPOCH":"2026-03-03T13:50:54.903840","MEAN_MOTION":13.29341203,"ECCENTRICITY":0.00010682,"INCLINATION":50.0055,"RA_OF_ASC_NODE":224.5997,"ARG_OF_PERICENTER":131.0886,"MEAN_ANOMALY":229.0079,"EPHEMERIS_TYPE":0,"CLASSIFICATION_TYPE":"U","NORAD_CAT_ID":65313,"ELEMENT_SET_NO":999,"REV_AT_EPOCH":2566,"BSTAR":4.9202633e-5,"MEAN_MOTION_DOT":-1.01e-6,"MEAN_MOTION_DDOT":0},{"OBJECT_NAME":"HULIANWANG DIGUI-82","OBJECT_ID":"2025-220A","EPOCH":"2026-03-03T14:58:04.276704","MEAN_MOTION":13.24421742,"ECCENTRICITY":0.00022351,"INCLINATION":86.4897,"RA_OF_ASC_NODE":79.5161,"ARG_OF_PERICENTER":102.0983,"MEAN_ANOMALY":258.0402,"EPHEMERIS_TYPE":0,"CLASSIFICATION_TYPE":"U","NORAD_CAT_ID":65817,"ELEMENT_SET_NO":999,"REV_AT_EPOCH":2094,"BSTAR":8.3666399e-5,"MEAN_MOTION_DOT":5.1e-7,"MEAN_MOTION_DDOT":0},{"OBJECT_NAME":"HULIANWANG DIGUI-83","OBJECT_ID":"2025-220B","EPOCH":"2026-03-03T14:47:15.723744","MEAN_MOTION":13.24420946,"ECCENTRICITY":0.00022272,"INCLINATION":86.4919,"RA_OF_ASC_NODE":79.5486,"ARG_OF_PERICENTER":101.8951,"MEAN_ANOMALY":258.2433,"EPHEMERIS_TYPE":0,"CLASSIFICATION_TYPE":"U","NORAD_CAT_ID":65818,"ELEMENT_SET_NO":999,"REV_AT_EPOCH":2094,"BSTAR":0.00013594466,"MEAN_MOTION_DOT":7.3e-7,"MEAN_MOTION_DDOT":0},{"OBJECT_NAME":"HULIANWANG DIGUI-84","OBJECT_ID":"2025-220C","EPOCH":"2026-03-03T14:36:20.708064","MEAN_MOTION":13.24421344,"ECCENTRICITY":0.00022237,"INCLINATION":86.4856,"RA_OF_ASC_NODE":79.4431,"ARG_OF_PERICENTER":100.927,"MEAN_ANOMALY":259.2115,"EPHEMERIS_TYPE":0,"CLASSIFICATION_TYPE":"U","NORAD_CAT_ID":65819,"ELEMENT_SET_NO":999,"REV_AT_EPOCH":2094,"BSTAR":0.00013394932,"MEAN_MOTION_DOT":7.2e-7,"MEAN_MOTION_DDOT":0},{"OBJECT_NAME":"HULIANWANG DIGUI-85","OBJECT_ID":"2025-220D","EPOCH":"2026-03-03T14:25:24.043872","MEAN_MOTION":13.24421849,"ECCENTRICITY":0.00022171,"INCLINATION":86.4917,"RA_OF_ASC_NODE":79.5388,"ARG_OF_PERICENTER":102.1957,"MEAN_ANOMALY":257.9426,"EPHEMERIS_TYPE":0,"CLASSIFICATION_TYPE":"U","NORAD_CAT_ID":65820,"ELEMENT_SET_NO":999,"REV_AT_EPOCH":2094,"BSTAR":0.00011664893,"MEAN_MOTION_DOT":6.5e-7,"MEAN_MOTION_DDOT":0},{"OBJECT_NAME":"HULIANWANG DIGUI-86","OBJECT_ID":"2025-220E","EPOCH":"2026-03-03T14:14:38.774112","MEAN_MOTION":13.24420711,"ECCENTRICITY":0.00022133,"INCLINATION":86.4896,"RA_OF_ASC_NODE":79.5004,"ARG_OF_PERICENTER":102.1149,"MEAN_ANOMALY":258.0233,"EPHEMERIS_TYPE":0,"CLASSIFICATION_TYPE":"U","NORAD_CAT_ID":65821,"ELEMENT_SET_NO":999,"REV_AT_EPOCH":2094,"BSTAR":0.00010872825,"MEAN_MOTION_DOT":6.1e-7,"MEAN_MOTION_DDOT":0},{"OBJECT_NAME":"HULIANWANG DIGUI-87","OBJECT_ID":"2025-231A","EPOCH":"2026-03-03T14:43:18.422688","MEAN_MOTION":13.29330198,"ECCENTRICITY":6.094e-5,"INCLINATION":49.9989,"RA_OF_ASC_NODE":194.5175,"ARG_OF_PERICENTER":176.8646,"MEAN_ANOMALY":183.223,"EPHEMERIS_TYPE":0,"CLASSIFICATION_TYPE":"U","NORAD_CAT_ID":65995,"ELEMENT_SET_NO":999,"REV_AT_EPOCH":1884,"BSTAR":3.5981122e-5,"MEAN_MOTION_DOT":-1.07e-6,"MEAN_MOTION_DDOT":0},{"OBJECT_NAME":"HULIANWANG DIGUI-88","OBJECT_ID":"2025-231B","EPOCH":"2026-03-03T14:55:22.001952","MEAN_MOTION":13.29329235,"ECCENTRICITY":6.26e-5,"INCLINATION":49.9975,"RA_OF_ASC_NODE":194.5475,"ARG_OF_PERICENTER":182.3832,"MEAN_ANOMALY":177.7037,"EPHEMERIS_TYPE":0,"CLASSIFICATION_TYPE":"U","NORAD_CAT_ID":65996,"ELEMENT_SET_NO":999,"REV_AT_EPOCH":1884,"BSTAR":4.0945093e-5,"MEAN_MOTION_DOT":-1.05e-6,"MEAN_MOTION_DDOT":0},{"OBJECT_NAME":"HULIANWANG DIGUI-89","OBJECT_ID":"2025-231C","EPOCH":"2026-03-03T14:31:16.482432","MEAN_MOTION":13.29329849,"ECCENTRICITY":6.432e-5,"INCLINATION":49.9953,"RA_OF_ASC_NODE":194.4349,"ARG_OF_PERICENTER":183.4237,"MEAN_ANOMALY":176.663,"EPHEMERIS_TYPE":0,"CLASSIFICATION_TYPE":"U","NORAD_CAT_ID":65997,"ELEMENT_SET_NO":999,"REV_AT_EPOCH":1884,"BSTAR":3.4681481e-5,"MEAN_MOTION_DOT":-1.08e-6,"MEAN_MOTION_DDOT":0},{"OBJECT_NAME":"HULIANWANG DIGUI-90","OBJECT_ID":"2025-231D","EPOCH":"2026-03-03T14:19:14.705472","MEAN_MOTION":13.29330007,"ECCENTRICITY":6.114e-5,"INCLINATION":49.9982,"RA_OF_ASC_NODE":194.4244,"ARG_OF_PERICENTER":182.6008,"MEAN_ANOMALY":177.4861,"EPHEMERIS_TYPE":0,"CLASSIFICATION_TYPE":"U","NORAD_CAT_ID":65998,"ELEMENT_SET_NO":999,"REV_AT_EPOCH":1884,"BSTAR":2.5504424e-5,"MEAN_MOTION_DOT":-1.12e-6,"MEAN_MOTION_DDOT":0},{"OBJECT_NAME":"HULIANWANG DIGUI-91","OBJECT_ID":"2025-231E","EPOCH":"2026-03-03T14:07:13.109952","MEAN_MOTION":13.29329915,"ECCENTRICITY":6.347e-5,"INCLINATION":50.0001,"RA_OF_ASC_NODE":194.4049,"ARG_OF_PERICENTER":181.6028,"MEAN_ANOMALY":178.4842,"EPHEMERIS_TYPE":0,"CLASSIFICATION_TYPE":"U","NORAD_CAT_ID":65999,"ELEMENT_SET_NO":999,"REV_AT_EPOCH":1884,"BSTAR":3.605085e-5,"MEAN_MOTION_DOT":-1.07e-6,"MEAN_MOTION_DDOT":0},{"OBJECT_NAME":"HULIANWANG DIGUI-92","OBJECT_ID":"2025-231F","EPOCH":"2026-03-03T13:55:10.527744","MEAN_MOTION":13.2933041,"ECCENTRICITY":6.293e-5,"INCLINATION":50.0042,"RA_OF_ASC_NODE":194.4061,"ARG_OF_PERICENTER":181.9368,"MEAN_ANOMALY":178.1502,"EPHEMERIS_TYPE":0,"CLASSIFICATION_TYPE":"U","NORAD_CAT_ID":66000,"ELEMENT_SET_NO":999,"REV_AT_EPOCH":1884,"BSTAR":3.5899386e-5,"MEAN_MOTION_DOT":-1.07e-6,"MEAN_MOTION_DDOT":0},{"OBJECT_NAME":"HULIANWANG DIGUI-93","OBJECT_ID":"2025-231G","EPOCH":"2026-03-03T15:19:25.432320","MEAN_MOTION":13.29329518,"ECCENTRICITY":6.092e-5,"INCLINATION":50.0009,"RA_OF_ASC_NODE":194.017,"ARG_OF_PERICENTER":181.5044,"MEAN_ANOMALY":178.5826,"EPHEMERIS_TYPE":0,"CLASSIFICATION_TYPE":"U","NORAD_CAT_ID":66001,"ELEMENT_SET_NO":999,"REV_AT_EPOCH":1885,"BSTAR":5.2166794e-5,"MEAN_MOTION_DOT":-1.0e-6,"MEAN_MOTION_DDOT":0},{"OBJECT_NAME":"HULIANWANG DIGUI-94","OBJECT_ID":"2025-231H","EPOCH":"2026-03-03T13:43:08.984928","MEAN_MOTION":13.29330663,"ECCENTRICITY":6.342e-5,"INCLINATION":50.0048,"RA_OF_ASC_NODE":194.3741,"ARG_OF_PERICENTER":182.6295,"MEAN_ANOMALY":177.4574,"EPHEMERIS_TYPE":0,"CLASSIFICATION_TYPE":"U","NORAD_CAT_ID":66002,"ELEMENT_SET_NO":999,"REV_AT_EPOCH":1884,"BSTAR":5.2098332e-5,"MEAN_MOTION_DOT":-1.0e-6,"MEAN_MOTION_DDOT":0},{"OBJECT_NAME":"HULIANWANG DIGUI-95","OBJECT_ID":"2025-231J","EPOCH":"2026-03-03T15:07:35.713344","MEAN_MOTION":13.29325642,"ECCENTRICITY":6.317e-5,"INCLINATION":50.0021,"RA_OF_ASC_NODE":193.9883,"ARG_OF_PERICENTER":178.9785,"MEAN_ANOMALY":181.1088,"EPHEMERIS_TYPE":0,"CLASSIFICATION_TYPE":"U","NORAD_CAT_ID":66003,"ELEMENT_SET_NO":999,"REV_AT_EPOCH":1885,"BSTAR":5.0005944e-5,"MEAN_MOTION_DOT":-1.01e-6,"MEAN_MOTION_DDOT":0},{"OBJECT_NAME":"HULIANWANG DIGUI-96","OBJECT_ID":"2025-258A","EPOCH":"2026-03-03T01:15:21.379392","MEAN_MOTION":13.29331174,"ECCENTRICITY":3.642e-5,"INCLINATION":50.0054,"RA_OF_ASC_NODE":316.2951,"ARG_OF_PERICENTER":88.9418,"MEAN_ANOMALY":271.1496,"EPHEMERIS_TYPE":0,"CLASSIFICATION_TYPE":"U","NORAD_CAT_ID":66412,"ELEMENT_SET_NO":999,"REV_AT_EPOCH":1561,"BSTAR":0.00016654912,"MEAN_MOTION_DOT":-4.7e-7,"MEAN_MOTION_DDOT":0}]
