HULIANWANG DIGUI-81     
1 65313U 25187J   26062.57702435 -.00000101  00000+0  49203-4 0  9994
2 65313  50.0055 224.5997 0001068 131.0886 229.0079 13.29341203 25661
HULIANWANG DIGUI-82     
1 65817U 25220A   26062.62366061  .00000051  00000+0  83666-4 0  9992
2 65817  86.4897  79.5161 0002235 102.0983 258.0402 13.24421742 20941
HULIANWANG DIGUI-83     
1 65818U 25220B   26062.61615421  .00000073  00000+0  13594-3 0  9995
2 65818  86.4919  79.5486 0002227 101.8951 258.2433 13.24420946 20941
HULIANWANG DIGUI-84     
1 65819U 25220C   26062.60857301  .00000072  00000+0  13395-3 0  9998
2 65819  86.4856  79.4431 0002223 100.9270 259.2115 13.24421344 20942
HULIANWANG DIGUI-85     
1 65820U 25220D   26062.60097273  .00000065  00000+0  11665-3 0  9994
2 65820  86.4917  79.5388 0002217 102.1957 257.9426 13.24421849 20943
HULIANWANG DIGUI-86     
1 65821U 25220E   26062.59350433  .00000061  00000+0  10873-3 0  9999
2 65821  86.4896  79.5004 0002213 102.1149 258.0233 13.24420711 20949
HULIANWANG DIGUI-87     
1 65995U 25231A   26062.61340767 -.00000107  00000+0  35981-4 0  9995
2 65995  49.9989 194.5175 0000609 176.8646 183.2230 13.29330198 18848
HULIANWANG DIGUI-88     
1 65996U 25231B   26062.62178243 -.00000105  00000+0  40945-4 0  9999
2 65996  49.9975 194.5475 0000626 182.3832 177.7037 13.29329235 18848
HULIANWANG DIGUI-89     
1 65997U 25231C   26062.60505188 -.00000108  00000+0  34681-4 0  9993
2 65997  49.9953 194.4349 0000643 183.4237 176.6630 13.29329849 18842
HULIANWANG DIGUI-90     
1 65998U 25231D   26062.59669798 -.00000112  00000+0  25504-4 0  9999
2 65998  49.9982 194.4244 0000611 182.6008 177.4861 13.29330007 18844
HULIANWANG DIGUI-91     
1 65999U 25231E   26062.58834618 -.00000107  00000+0  36051-4 0  9997
2 65999  50.0001 194.4049 0000634 181.6028 178.4842 13.29329915 18845
HULIANWANG DIGUI-92     
1 66000U 25231F   26062.57998296 -.00000107  00000+0  35899-4 0  9992
2 66000  50.0042 194.4061 0000629 181.9368 178.1502 13.29330410 18844
HULIANWANG DIGUI-93     
1 66001U 25231G   26062.63848880 -.00000100  00000+0  52167-4 0  9993
2 66001  50.0009 194.0170 0000609 181.5044 178.5826 13.29329518 18851
HULIANWANG DIGUI-94     
1 66002U 25231H   26062.57163177 -.00000100  00000+0  52098-4 0  9999
2 66002  50.0048 194.3741 0000634 182.6295 177.4574 13.29330663 18840
HULIANWANG DIGUI-95     
1 66003U 25231J   26062.63027446 -.00000101  00000+0  50006-4 0  9993
2 66003  50.0021 193.9883 0000631 178.9785 181.1088 13.29325642 18857
HULIANWANG DIGUI-96     
1 66412U 25258A   26062.05233078 -.00000047  00000+0  16655-3 0  9992
2 66412  50.0054 316.2951 0000364  88.9418 271.1496 13.29331174 15610
